BEESAT-4                
1 41619U 16040W   22148.70212507  .00019086  00000+0  64468-3 0  9997
2 41619  97.2174 199.8641 0010110 177.3821 182.7475 15.30656781317707
CAS-2T & KS-1Q          
1 41847U 16066G   22148.79780683  .00000452  00000+0  79027-4 0  9997
2 41847  98.5517 213.4868 0362707 268.6793  87.2827 14.38559425291528
NAYIF-1 (EO-88)         
1 42017U 17008BX  22148.73870232  .00021285  00000+0  64601-3 0  9996
2 42017  97.2702 215.1455 0003653 325.5298  34.5707 15.34109368294053
ZHUHAI-1 02 (CAS-4B)    
1 42759U 17034B   22148.95411851  .00004869  00000+0  29292-3 0  9996
2 42759  43.0172  80.1670 0007907 173.5526 271.6978 15.11780440273407
ZHUHAI-1 01 (CAS-4A)    
1 42761U 17034D   22148.91663888  .00005145  00000+0  30793-3 0  9990
2 42761  43.0173  79.1773 0008511 178.3214 221.3981 15.11875913273408
MAX VALIER SAT          
1 42778U 17036P   22148.85918608  .00009738  00000+0  37239-3 0  9990
2 42778  97.2067 190.6356 0011877  45.1436 315.0766 15.26722285273918
RADFXSAT (FOX-1B)       
1 43017U 17073E   22148.64742201  .00003515  00000+0  26968-3 0  9993
2 43017  97.6774  43.6485 0247460 252.6141 104.7876 14.81308414244187
FOX-1D (AO-92)          
1 43137U 18004AC  22148.72680310  .00012779  00000+0  45447-3 0  9997
2 43137  97.3691 224.0648 0009091  77.9611 282.2648 15.29079564243336
DIWATA-2B               
1 43678U 18084H   22148.86847942  .00001630  00000+0  16591-3 0  9998
2 43678  97.9666 281.9075 0009686 358.7379   1.3814 14.92148127194938
ES'HAIL 2               
1 43700U 18090A   22148.85813300  .00000150  00000+0  00000+0 0  9991
2 43700   0.0449 113.8739 0000943 321.0043 146.2102  1.00274637 12834
FOX-1CLIFF (AO-95)      
1 43770U 18099N   22148.73027386  .00003598  00000+0  32232-3 0  9990
2 43770  97.6214 215.5922 0013417 348.6967  11.3951 14.96358097190065
ITASAT 1                
1 43786U 18099AE  22148.65868583  .00002835  00000+0  25407-3 0  9999
2 43786  97.6238 216.4299 0013955 340.2527  19.8153 14.96512991190097
JY1SAT (JO-97)          
1 43803U 18099AX  22148.68285944  .00003454  00000+0  30464-3 0  9993
2 43803  97.6215 216.2040 0013876 340.8247  19.2451 14.96997881190114
UWE-4                   
1 43880U 18111E   22148.69688225  .00004439  00000+0  37949-3 0  9992
2 43880  97.6717  55.3523 0013250  36.5037 323.7086 14.98072583186742
NEXUS (FO-99)           
1 43937U 19003F   22148.81612523  .00012448  00000+0  42469-3 0  9990
2 43937  97.1313 182.9361 0019857 219.0698 140.9110 15.30282441186974
PSAT2 (NO-104)          
1 44354U 19036R   22148.74730757  .00093248 -39808-5  87387-3 0  9992
2 44354  28.5255 314.7323 0239392 108.6314 254.0435 15.37251232161645
JAISAT-1                
1 44419U 19038F   22148.91467239  .00008101  00000+0  41067-3 0  9991
2 44419  97.6343 118.8868 0018944 193.1113 166.9630 15.17074317160094
DUCHIFAT-3              
1 44854U 19089C   22148.55018994  .00005020  00000+0  39176-3 0  9995
2 44854  36.9647 218.3269 0007565  52.3930 307.7481 15.00978976134941
CAS-6 (TO-108)          
1 44881U 19093C   22148.85965451  .00000877  00000+0  11785-3 0  9993
2 44881  97.8919 228.3493 0013695 248.4463 111.5273 14.81709644131870
RS-44 & BREEZE-KM R/B   
1 44909U 19096E   22148.72380664  .00000005  00000+0 -22698-4 0  9990
2 44909  82.5227 243.3796 0217362   6.1828 354.1876 12.79713146112980
ORBITAL FACTORY 2 (OF-2)
1 45113U 19071C   22148.44556906  .00030775  00000+0  65653-3 0  9997
2 45113  51.6365 157.7451 0010552  89.2602 270.9594 15.44563500130285
HUSKYSAT-1 (HO-107)     
1 45119U 19071J   22148.24593297  .00027495  00000+0  60442-3 0  9991
2 45119  51.6363 158.6387 0010359  86.3659 273.8512 15.43738664130244
BY70-2                  
1 45857U 20042B   22148.88329496  .00010400  00000+0  13917-2 0  9990
2 45857  97.9541 225.9140 0011846 172.8293 187.2958 14.79599984102560
SALSAT                  
1 46495U 20068K   22148.80876336  .00002066  00000+0  15194-3 0  9998
2 46495  97.7284  90.1055 0016174 350.4793   9.6124 15.04438577 91238
BY70-3                  
1 46839U 20079N   22148.84166581  .00027865  00000+0  66923-3 0  9990
2 46839  97.1988 221.2017 0006245  57.9405  50.2994 15.41295353 87222
RADFXSAT-2 (AO-109)     
1 47311U 21002C   22148.80112294  .00012022  00000+0  48671-3 0  9990
2 47311  60.6868  76.2088 0012794 314.0131  45.9902 15.25035801 75460
UVSQ-SAT                
1 47438U 21006AB  22148.60529300  .00007147  00000+0  38020-3 0  9991
2 47438  97.4381 208.0244 0011309 351.8591   8.2457 15.15503040 74276
DIY-1 (ARDUIQUBE)       
1 47963U 21022AH  22148.64046772  .00020270  00000+0  11463-2 0  9996
2 47963  97.5350  50.2369 0016489 192.7058 167.3760 15.12988544 63955
XW-3 (CAS-9)            
1 50466U 21131B   22148.83525866  .00000202  00000+0  80670-4 0  9997
2 50466  98.5805 226.0980 0004416 190.7180 169.3914 14.38494221 22090
TEVEL-3                 
1 50988U 22002E   22148.80724200  .00009769  00000+0  53783-3 0  9995
2 50988  97.4819 216.1218 0011123 128.6541 325.9388 15.14184582 20443
TEVEL-8                 
1 50989U 22002F   22148.81163270  .00009658  00000+0  53255-3 0  9992
2 50989  97.4833 216.1396 0011213 126.9315 327.3735 15.14132583 20443
TEVEL-5                 
1 50998U 22002Q   22148.77616557  .00010217  00000+0  55471-3 0  9993
2 50998  97.4804 216.1662 0012685 126.1735  12.5248 15.14652929 20442
TEVEL-6                 
1 50999U 22002R   22148.97145894  .00010666  00000+0  55941-3 0  9997
2 50999  97.3725 216.4369 0025559 239.5276 245.0223 15.15647117 20477
TEVEL-1                 
1 51013U 22002AF  22148.80910356  .00009646  00000+0  53149-3 0  9994
2 51013  97.4808 216.1095 0011036 127.6994 326.7045 15.14160402 20442
TEVEL-7                 
1 51062U 22002CG  22148.81277852  .00009594  00000+0  52920-3 0  9994
2 51062  97.4827 216.1313 0011100 126.8958 327.3041 15.14121728 20444
TEVEL-4                 
1 51063U 22002CH  22148.81313021  .00009581  00000+0  52862-3 0  9995
2 51063  97.4827 216.1298 0011107 127.1354 326.9556 15.14114656 20446
TEVEL-2                 
1 51069U 22002CP  22148.87782757  .00009714  00000+0  53495-3 0  9994
2 51069  97.4813 216.1810 0011147 128.2030 346.0089 15.14177414 20450
